COMMENT,ORIGINATOR,NORAD_CAT_ID,OBJECT_NAME,OBJECT_TYPE,CLASSIFICATION_TYPE,INTLDES,EPOCH,EPOCH_MICROSECONDS,MEAN_MOTION,ECCENTRICITY,INCLINATION,RA_OF_ASC_NODE,ARG_OF_PERICENTER,MEAN_ANOMALY,EPHEMERIS_TYPE,ELEMENT_SET_NO,REV_AT_EPOCH,BSTAR,MEAN_MOTION_DOT,MEAN_MOTION_DDOT,FILE,TLE_LINE0,TLE_LINE1,TLE_LINE2,OBJECT_ID,OBJECT_NUMBER,SEMIMAJOR_AXIS,PERIOD,APOGEE,PERIGEE,DECAYED
GENERATED VIA SPACETRACK.ORG API,18 SPCS,44336,ARIANE 5 DEB (SYLDA),DEBRIS,U,19034D,2023-02-08 22:54:10,232640,3.05826565,0.6693391,5.7575,144.0976,1.7528,359.7073,0,999,3423,0.013649,0.00075982,0,3782313,0 ARIANE 5 DEB (SYLDA),1 44336U 19034D   23039.95428510  .00075982  00000-0  13649-1 0  9993,2 44336   5.7575 144.0976 6693391   1.7528 359.7073  3.05826565 34238,2019-034D,44336,20048.646,470.855,27089.853,251.168,0
GENERATED VIA SPACETRACK.ORG API,18 SPCS,44336,ARIANE 5 DEB (SYLDA),DEBRIS,U,19034D,2023-02-08 22:54:10,232640,3.05826565,0.6693391,5.7575,144.0976,1.7528,359.7073,0,999,3421,0.013649,0.00075982,0,3782520,0 ARIANE 5 DEB (SYLDA),1 44336U 19034D   23039.95428510  .00075982  00000-0  13649-1 0  9993,2 44336   5.7575 144.0976 6693391   1.7528 359.7073  3.05826565 34216,2019-034D,44336,20048.646,470.855,27089.853,251.168,0
GENERATED VIA SPACETRACK.ORG API,18 SPCS,44336,ARIANE 5 DEB (SYLDA),DEBRIS,U,19034D,2023-02-10 06:16:42,462048,3.06031592,0.6691772,5.7602,143.3089,3.3063,359.4883,0,999,3425,0.016762,0.00092962,0,3784133,0 ARIANE 5 DEB (SYLDA),1 44336U 19034D   23041.26160257  .00092962  00000-0  16762-1 0  9997,2 44336   5.7602 143.3089 6691772   3.3063 359.4883  3.06031592 34256,2019-034D,44336,20039.69,470.54,27071.659,251.451,0
GENERATED VIA SPACETRACK.ORG API,18 SPCS,44336,ARIANE 5 DEB (SYLDA),DEBRIS,U,19034D,2023-02-10 14:07:08,144544,3.06086093,0.6691364,5.7606,143.1094,3.6988,359.4316,0,999,3428,0.013718,0.00076058,0,3785071,0 ARIANE 5 DEB (SYLDA),1 44336U 19034D   23041.58828871  .00076058  00000-0  13718-1 0  9991,2 44336   5.7606 143.1094 6691364   3.6988 359.4316  3.06086093 34280,2019-034D,44336,20037.311,470.456,27066.87,251.482,0
GENERATED VIA SPACETRACK.ORG API,18 SPCS,44336,ARIANE 5 DEB (SYLDA),DEBRIS,U,19034D,2023-02-10 14:07:08,144544,3.06086093,0.6691364,5.7606,143.1094,3.6988,359.4316,0,999,3426,0.013718,0.00076058,0,3785174,0 ARIANE 5 DEB (SYLDA),1 44336U 19034D   23041.58828871  .00076058  00000-0  13718-1 0  9991,2 44336   5.7606 143.1094 6691364   3.6988 359.4316  3.06086093 34268,2019-034D,44336,20037.311,470.456,27066.87,251.482,0
GENERATED VIA SPACETRACK.ORG API,18 SPCS,44336,ARIANE 5 DEB (SYLDA),DEBRIS,U,19034D,2023-02-11 13:37:58,73664,3.06233352,0.669024,5.7627,142.5172,4.8674,359.2601,0,999,3431,0.012668,0.00070112,0,3786577,0 ARIANE 5 DEB (SYLDA),1 44336U 19034D   23042.56803326  .00070112  00000-0  12668-1 0  9996,2 44336   5.7627 142.5172 6690240   4.8674 359.2601  3.06233352 34311,2019-034D,44336,20030.887,470.23,27053.896,251.608,0
GENERATED VIA SPACETRACK.ORG API,18 SPCS,44336,ARIANE 5 DEB (SYLDA),DEBRIS,U,19034D,2023-02-11 21:28:05,456640,3.06278038,0.6689886,5.7634,142.3198,5.2574,359.202,0,999,3430,0.012748,0.00070474,0,3786703,0 ARIANE 5 DEB (SYLDA),1 44336U 19034D   23042.89450760  .00070474  00000-0  12748-1 0  9992,2 44336   5.7634 142.3198 6689886   5.2574 359.2020  3.06278038 34307,2019-034D,44336,20028.939,470.161,27049.935,251.672,0
GENERATED VIA SPACETRACK.ORG API,18 SPCS,44336,ARIANE 5 DEB (SYLDA),DEBRIS,U,19034D,2023-02-12 05:18:08,628480,3.0632333,0.6689576,5.7639,142.123,5.6458,359.1437,0,999,3433,0.012966,0.00071733,0,3787692,0 ARIANE 5 DEB (SYLDA),1 44336U 19034D   23043.22093320  .00071733  00000-0  12966-1 0  9996,2 44336   5.7639 142.1230 6689576   5.6458 359.1437  3.06323330 34338,2019-034D,44336,20026.964,470.092,27046.019,251.639,0
GENERATED VIA SPACETRACK.ORG API,18 SPCS,44336,ARIANE 5 DEB (SYLDA),DEBRIS,U,19034D,2023-02-13 04:47:51,501696,3.06468053,0.6688476,5.7653,141.5289,6.8168,358.9649,0,999,3434,0.012302,0.00067901,0,3788833,0 ARIANE 5 DEB (SYLDA),1 44336U 19034D   23044.19990164  .00067901  00000-0  12302-1 0  9991,2 44336   5.7653 141.5289 6688476   6.8168 358.9649  3.06468053 34345,2019-034D,44336,20020.659,469.87,27033.294,251.754,0
GENERATED VIA SPACETRACK.ORG API,18 SPCS,44336,ARIANE 5 DEB (SYLDA),DEBRIS,U,19034D,2023-02-13 04:47:51,501696,3.06468053,0.6688476,5.7653,141.5289,6.8168,358.9649,0,999,3436,0.012302,0.00067901,0,3789366,0 ARIANE 5 DEB (SYLDA),1 44336U 19034D   23044.19990164  .00067901  00000-0  12302-1 0  9991,2 44336   5.7653 141.5289 6688476   6.8168 358.9649  3.06468053 34367,2019-034D,44336,20020.659,469.87,27033.294,251.754,0
GENERATED VIA SPACETRACK.ORG API,18 SPCS,44336,ARIANE 5 DEB (SYLDA),DEBRIS,U,19034D,2023-02-15 19:24:05,854176,3.06826824,0.6685514,5.77,139.9444,9.9361,358.4822,0,999,3442,0.014353,0.00078006,0,3795609,0 ARIANE 5 DEB (SYLDA),1 44336U 19034D   23046.80840109  .00078006  00000-0  14353-1 0  9990,2 44336   5.7700 139.9444 6685514   9.9361 358.4822  3.06826824 34422,2019-034D,44336,20005.049,469.32,27001.318,252.511,0
GENERATED VIA SPACETRACK.ORG API,18 SPCS,44336,ARIANE 5 DEB (SYLDA),DEBRIS,U,19034D,2023-02-16 03:13:16,478400,3.06889996,0.6684822,5.7693,139.748,10.3244,358.4225,0,999,3443,0.015433,0.00083113,0,3797005,0 ARIANE 5 DEB (SYLDA),1 44336U 19034D   23047.13421850  .00083113  00000-0  15433-1 0  9990,2 44336   5.7693 139.7480 6684822  10.3244 358.4225  3.06889996 34435,2019-034D,44336,20002.304,469.224,26995.353,252.985,0
GENERATED VIA SPACETRACK.ORG API,18 SPCS,44336,ARIANE 5 DEB (SYLDA),DEBRIS,U,19034D,2023-02-16 03:13:16,478400,3.06889996,0.6684822,5.7693,139.748,10.3244,358.4225,0,999,3445,0.015433,0.00083113,0,3798293,0 ARIANE 5 DEB (SYLDA),1 44336U 19034D   23047.13421850  .00083113  00000-0  15433-1 0  9990,2 44336   5.7693 139.7480 6684822  10.3244 358.4225  3.06889996 34457,2019-034D,44336,20002.304,469.224,26995.353,252.985,0
GENERATED VIA SPACETRACK.ORG API,18 SPCS,44336,ARIANE 5 DEB (SYLDA),DEBRIS,U,19034D,2023-02-16 11:02:23,154144,3.06943548,0.6684429,5.7691,139.5501,10.716,358.3629,0,999,3446,0.015074,0.00081158,0,3799178,0 ARIANE 5 DEB (SYLDA),1 44336U 19034D   23047.45999021  .00081158  00000-0  15074-1 0  9993,2 44336   5.7691 139.5501 6684429  10.7160 358.3629  3.06943548 34463,2019-034D,44336,19999.977,469.142,26990.685,252.999,0
GENERATED VIA SPACETRACK.ORG API,18 SPCS,44336,ARIANE 5 DEB (SYLDA),DEBRIS,U,19034D,2023-02-17 10:29:12,562944,3.07100405,0.6683234,5.7708,138.9561,11.8809,358.189,0,999,3449,0.013432,0.00072131,0,3802730,0 ARIANE 5 DEB (SYLDA),1 44336U 19034D   23048.43695096  .00072131  00000-0  13432-1 0  9994,2 44336   5.7708 138.9561 6683234  11.8809 358.1890  3.07100405 34495,2019-034D,44336,19993.166,468.902,26976.932,253.13,0
GENERATED VIA SPACETRACK.ORG API,18 SPCS,44336,ARIANE 5 DEB (SYLDA),DEBRIS,U,19034D,2023-02-17 10:29:12,562944,3.07100405,0.6683234,5.7708,138.9561,11.8809,358.189,0,999,3447,0.013432,0.00072131,0,3802935,0 ARIANE 5 DEB (SYLDA),1 44336U 19034D   23048.43695096  .00072131  00000-0  13432-1 0  9994,2 44336   5.7708 138.9561 6683234  11.8809 358.1890  3.07100405 34473,2019-034D,44336,19993.166,468.902,26976.932,253.13,0
GENERATED VIA SPACETRACK.ORG API,18 SPCS,44336,ARIANE 5 DEB (SYLDA),DEBRIS,U,19034D,2023-02-17 18:18:00,882144,3.07140484,0.6683055,5.7714,138.7574,12.2749,358.131,0,999,3448,0.011721,0.00063191,0,3804332,0 ARIANE 5 DEB (SYLDA),1 44336U 19034D   23048.76251021  .00063191  00000-0  11721-1 0  9991,2 44336   5.7714 138.7574 6683055  12.2749 358.1310  3.07140484 34480,2019-034D,44336,19991.427,468.841,26973.673,252.911,0
GENERATED VIA SPACETRACK.ORG API,18 SPCS,44336,ARIANE 5 DEB (SYLDA),DEBRIS,U,19034D,2023-02-18 09:55:25,732128,3.07224333,0.6682397,5.7726,138.3639,13.0515,358.0186,0,999,3452,0.011792,0.00063476,0,3807124,0 ARIANE 5 DEB (SYLDA),1 44336U 19034D   23049.41349227  .00063476  00000-0  11792-1 0  9994,2 44336   5.7726 138.3639 6682397  13.0515 358.0186  3.07224333 34520,2019-034D,44336,19987.79,468.713,26966.289,253.02,0
GENERATED VIA SPACETRACK.ORG API,18 SPCS,44336,ARIANE 5 DEB (SYLDA),DEBRIS,U,19034D,2023-02-19 09:21:05,681376,3.07349522,0.6681508,5.776,137.7779,14.2151,357.8525,0,999,3455,0.013202,0.00071227,0,3811610,0 ARIANE 5 DEB (SYLDA),1 44336U 19034D   23050.38964909  .00071227  00000-0  13202-1 0  9993,2 44336   5.7760 137.7779 6681508  14.2151 357.8525  3.07349522 34553,2019-034D,44336,19982.362,468.522,26955.457,252.996,0
GENERATED VIA SPACETRACK.ORG API,18 SPCS,44336,ARIANE 5 DEB (SYLDA),DEBRIS,U,19034D,2023-02-19 09:21:05,681376,3.07349522,0.6681508,5.776,137.7779,14.2151,357.8525,0,999,3453,0.013202,0.00071227,0,3811897,0 ARIANE 5 DEB (SYLDA),1 44336U 19034D   23050.38964909  .00071227  00000-0  13202-1 0  9993,2 44336   5.7760 137.7779 6681508  14.2151 357.8525  3.07349522 34531,2019-034D,44336,19982.362,468.522,26955.457,252.996,0
GENERATED VIA SPACETRACK.ORG API,18 SPCS,44336,ARIANE 5 DEB (SYLDA),DEBRIS,U,19034D,2023-02-20 08:46:11,352288,3.07469873,0.6680553,5.7785,137.19,15.3841,357.687,0,999,3456,0.01122,0.00060374,0,3816075,0 ARIANE 5 DEB (SYLDA),1 44336U 19034D   23051.36540917  .00060374  00000-0  11220-1 0  9990,2 44336   5.7785 137.1900 6680553  15.3841 357.6870  3.07469873 34561,2019-034D,44336,19977.147,468.339,26944.851,253.173,0
GENERATED VIA SPACETRACK.ORG API,18 SPCS,44336,ARIANE 5 DEB (SYLDA),DEBRIS,U,19034D,2023-02-21 00:22:36,64416,3.07554672,0.6679893,5.7777,136.7901,16.1766,357.574,0,999,3458,0.012076,0.00064941,0,3817699,0 ARIANE 5 DEB (SYLDA),1 44336U 19034D   23052.01569519  .00064941  00000-0  12076-1 0  9996,2 44336   5.7777 136.7901 6679893  16.1766 357.5740  3.07554672 34587,2019-034D,44336,19973.475,468.209,26937.407,253.272,0
